{
  "type": "FeatureCollection",
  "features": [
    {
      "type": "Feature",
      "properties": {
        "norad_id": 34121,
        "name": "COSMOS 2251 DEB",
        "group": "cosmos-2251-debris",
        "lat": -8.130587865793833,
        "lon": -75.61041773242758,
        "alt_km": 1009.2400559615926,
        "timestamp": "2025-12-09T21:34:11.803246+00:00",
        "meta_object_name": "COSMOS 2251 DEB",
        "meta_object_id": "1993-036KS",
        "meta_epoch": "2025-12-09T12:24:06.509664",
        "meta_mean_motion": 13.91912384,
        "meta_eccentricity": 0.024009,
        "meta_inclination": 73.993,
        "meta_ra_of_asc_node": 102.6935,
        "meta_arg_of_pericenter": 308.8299,
        "meta_mean_anomaly": 128.4774,
        "meta_ephemeris_type": 0,
        "meta_classification_type": "U",
        "meta_norad_cat_id": 34121,
        "meta_element_set_no": 999,
        "meta_rev_at_epoch": 85080,
        "meta_bstar": 0.0018164871,
        "meta_mean_motion_dot": 2.905e-05,
        "meta_mean_motion_ddot": 0,
        "tle_line1": "1 34121U 93036KS  25343.51674201  .00002905  00000+0  18165-2 0  9993",
        "tle_line2": "2 34121  73.9930 102.6935 0240090 308.8299 128.4774 13.91912384850809"
      },
      "geometry": {
        "type": "Point",
        "coordinates": [
          -75.61041773242758,
          -8.130587865793833
        ]
      }
    },
    {
      "type": "Feature",
      "properties": {
        "norad_id": 34122,
        "name": "COSMOS 2251 DEB",
        "group": "cosmos-2251-debris",
        "lat": 51.524540212838765,
        "lon": 145.21137973279727,
        "alt_km": 621.9422737413306,
        "timestamp": "2025-12-09T21:34:11.803257+00:00",
        "meta_object_name": "COSMOS 2251 DEB",
        "meta_object_id": "1993-036KT",
        "meta_epoch": "2025-12-09T11:48:06.587424",
        "meta_mean_motion": 14.64980279,
        "meta_eccentricity": 0.00841541,
        "meta_inclination": 74.0363,
        "meta_ra_of_asc_node": 124.8826,
        "meta_arg_of_pericenter": 22.6595,
        "meta_mean_anomaly": 45.7698,
        "meta_ephemeris_type": 0,
        "meta_classification_type": "U",
        "meta_norad_cat_id": 34122,
        "meta_element_set_no": 999,
        "meta_rev_at_epoch": 88637,
        "meta_bstar": 0.0016259354,
        "meta_mean_motion_dot": 9.155e-05,
        "meta_mean_motion_ddot": 0,
        "tle_line1": "1 34122U 93036KT  25343.49174291  .00009155  00000+0  16259-2 0  9991",
        "tle_line2": "2 34122  74.0363 124.8826 0084154  22.6595  45.7698 14.64980279886370"
      },
      "geometry": {
        "type": "Point",
        "coordinates": [
          145.21137973279727,
          51.524540212838765
        ]
      }
    },
    {
      "type": "Feature",
      "properties": {
        "norad_id": 34127,
        "name": "COSMOS 2251 DEB",
        "group": "cosmos-2251-debris",
        "lat": -49.01979888334325,
        "lon": 29.947072651268595,
        "alt_km": 749.7917703443945,
        "timestamp": "2025-12-09T21:34:11.803267+00:00",
        "meta_object_name": "COSMOS 2251 DEB",
        "meta_object_id": "1993-036KY",
        "meta_epoch": "2025-12-09T07:01:03.270144",
        "meta_mean_motion": 14.31489574,
        "meta_eccentricity": 0.0114851,
        "meta_inclination": 74.1789,
        "meta_ra_of_asc_node": 50.0937,
        "meta_arg_of_pericenter": 250.9536,
        "meta_mean_anomaly": 172.8307,
        "meta_ephemeris_type": 0,
        "meta_classification_type": "U",
        "meta_norad_cat_id": 34127,
        "meta_element_set_no": 999,
        "meta_rev_at_epoch": 86722,
        "meta_bstar": 0.0028226,
        "meta_mean_motion_dot": 8.044e-05,
        "meta_mean_motion_ddot": 0,
        "tle_line1": "1 34127U 93036KY  25343.29239896  .00008044  00000+0  28226-2 0  9990",
        "tle_line2": "2 34127  74.1789  50.0937 0114851 250.9536 172.8307 14.31489574867228"
      },
      "geometry": {
        "type": "Point",
        "coordinates": [
          29.947072651268595,
          -49.01979888334325
        ]
      }
    },
    {
      "type": "Feature",
      "properties": {
        "norad_id": 34128,
        "name": "COSMOS 2251 DEB",
        "group": "cosmos-2251-debris",
        "lat": 16.16493878490985,
        "lon": 117.74901975832236,
        "alt_km": 569.917725645596,
        "timestamp": "2025-12-09T21:34:11.803277+00:00",
        "meta_object_name": "COSMOS 2251 DEB",
        "meta_object_id": "1993-036KZ",
        "meta_epoch": "2025-12-09T15:13:39.654336",
        "meta_mean_motion": 15.00916716,
        "meta_eccentricity": 0.00262491,
        "meta_inclination": 74.0001,
        "meta_ra_of_asc_node": 303.0588,
        "meta_arg_of_pericenter": 55.8022,
        "meta_mean_anomaly": 119.6825,
        "meta_ephemeris_type": 0,
        "meta_classification_type": "U",
        "meta_norad_cat_id": 34128,
        "meta_element_set_no": 999,
        "meta_rev_at_epoch": 89120,
        "meta_bstar": 0.002628386,
        "meta_mean_motion_dot": 0.00033855,
        "meta_mean_motion_ddot": 0,
        "tle_line1": "1 34128U 93036KZ  25343.63448674  .00033855  00000+0  26284-2 0  9995",
        "tle_line2": "2 34128  74.0001 303.0588 0026249  55.8022 119.6825 15.00916716891202"
      },
      "geometry": {
        "type": "Point",
        "coordinates": [
          117.74901975832236,
          16.16493878490985
        ]
      }
    },
    {
      "type": "Feature",
      "properties": {
        "norad_id": 34129,
        "name": "COSMOS 2251 DEB",
        "group": "cosmos-2251-debris",
        "lat": -20.568124033141828,
        "lon": -21.08105048127618,
        "alt_km": 647.4620945492261,
        "timestamp": "2025-12-09T21:34:11.803288+00:00",
        "meta_object_name": "COSMOS 2251 DEB",
        "meta_object_id": "1993-036LA",
        "meta_epoch": "2025-12-09T10:16:37.675776",
        "meta_mean_motion": 14.75640899,
        "meta_eccentricity": 0.00328216,
        "meta_inclination": 74.0355,
        "meta_ra_of_asc_node": 346.0056,
        "meta_arg_of_pericenter": 68.618,
        "meta_mean_anomaly": 291.8491,
        "meta_ephemeris_type": 0,
        "meta_classification_type": "U",
        "meta_norad_cat_id": 34129,
        "meta_element_set_no": 999,
        "meta_rev_at_epoch": 61249,
        "meta_bstar": 0.0017943193,
        "meta_mean_motion_dot": 0.0001235,
        "meta_mean_motion_ddot": 0,
        "tle_line1": "1 34129U 93036LA  25343.42821384  .00012350  00000+0  17943-2 0  9995",
        "tle_line2": "2 34129  74.0355 346.0056 0032821  68.6180 291.8491 14.75640899612493"
      },
      "geometry": {
        "type": "Point",
        "coordinates": [
          -21.08105048127618,
          -20.568124033141828
        ]
      }
    },
    {
      "type": "Feature",
      "properties": {
        "norad_id": 34136,
        "name": "COSMOS 2251 DEB",
        "group": "cosmos-2251-debris",
        "lat": 73.87627001426473,
        "lon": 130.63698359441068,
        "alt_km": 614.9795429580063,
        "timestamp": "2025-12-09T21:34:11.803298+00:00",
        "meta_object_name": "COSMOS 2251 DEB",
        "meta_object_id": "1993-036LH",
        "meta_epoch": "2025-12-09T15:25:25.844736",
        "meta_mean_motion": 14.80045861,
        "meta_eccentricity": 0.00860447,
        "meta_inclination": 74.0208,
        "meta_ra_of_asc_node": 48.7404,
        "meta_arg_of_pericenter": 172.5136,
        "meta_mean_anomaly": 352.4587,
        "meta_ephemeris_type": 0,
        "meta_classification_type": "U",
        "meta_norad_cat_id": 34136,
        "meta_element_set_no": 999,
        "meta_rev_at_epoch": 89964,
        "meta_bstar": 0.00078271266,
        "meta_mean_motion_dot": 6.283e-05,
        "meta_mean_motion_ddot": 0,
        "tle_line1": "1 34136U 93036LH  25343.64266024  .00006283  00000+0  78271-3 0  9991",
        "tle_line2": "2 34136  74.0208  48.7404 0086044 172.5136 352.4587 14.80045861899641"
      },
      "geometry": {
        "type": "Point",
        "coordinates": [
          130.63698359441068,
          73.87627001426473
        ]
      }
    },
    {
      "type": "Feature",
      "properties": {
        "norad_id": 34139,
        "name": "COSMOS 2251 DEB",
        "group": "cosmos-2251-debris",
        "lat": 24.212447155268475,
        "lon": -93.1236053476272,
        "alt_km": 677.8414554716055,
        "timestamp": "2025-12-09T21:34:11.803308+00:00",
        "meta_object_name": "COSMOS 2251 DEB",
        "meta_object_id": "1993-036LL",
        "meta_epoch": "2025-12-09T05:33:30.589920",
        "meta_mean_motion": 14.58984878,
        "meta_eccentricity": 0.0042552,
        "meta_inclination": 74.0312,
        "meta_ra_of_asc_node": 260.7491,
        "meta_arg_of_pericenter": 332.4105,
        "meta_mean_anomaly": 149.901,
        "meta_ephemeris_type": 0,
        "meta_classification_type": "U",
        "meta_norad_cat_id": 34139,
        "meta_element_set_no": 999,
        "meta_rev_at_epoch": 88098,
        "meta_bstar": 0.0020759,
        "meta_mean_motion_dot": 9.851e-05,
        "meta_mean_motion_ddot": 0,
        "tle_line1": "1 34139U 93036LL  25343.23160405  .00009851  00000+0  20759-2 0  9996",
        "tle_line2": "2 34139  74.0312 260.7491 0042552 332.4105 149.9010 14.58984878880983"
      },
      "geometry": {
        "type": "Point",
        "coordinates": [
          -93.1236053476272,
          24.212447155268475
        ]
      }
    }
  ]
}